[{"OBJECT_NAME":"STARLINK-32468","OBJECT_ID":"2024-224L","EPOCH":"2026-03-09T06:03:55.936800","MEAN_MOTION":15.27581167,"ECCENTRICITY":8.536e-5,"INCLINATION":43.0007,"RA_OF_ASC_NODE":160.5338,"ARG_OF_PERICENTER":242.2543,"MEAN_ANOMALY":117.8222,"EPHEMERIS_TYPE":0,"CLASSIFICATION_TYPE":"U","NORAD_CAT_ID":62149,"ELEMENT_SET_NO":999,"REV_AT_EPOCH":7225,"BSTAR":0.0014268879,"MEAN_MOTION_DOT":0.00039213,"MEAN_MOTION_DDOT":0},{"OBJECT_NAME":"COSMOS 2251 DEB","OBJECT_ID":"1993-036BXP","EPOCH":"2026-03-04T07:23:49.847712","MEAN_MOTION":15.24789556,"ECCENTRICITY":0.00190834,"INCLINATION":73.9759,"RA_OF_ASC_NODE":64.3004,"ARG_OF_PERICENTER":239.4537,"MEAN_ANOMALY":120.4779,"EPHEMERIS_TYPE":0,"CLASSIFICATION_TYPE":"U","NORAD_CAT_ID":47059,"ELEMENT_SET_NO":999,"REV_AT_EPOCH":9543,"BSTAR":0.0048704033,"MEAN_MOTION_DOT":0.00123422,"MEAN_MOTION_DDOT":0}]
